SENTINEL-6              
1 46984U 20086A   24281.73907343 -.00000027  00000+0  14711-3 0  9996
2 46984  66.0438 337.5022 0007885 269.2905  90.7206 12.80928913181246
